[{"OBJECT_NAME":"OBJECT A","OBJECT_ID":"2024-203A","EPOCH":"2026-03-09T23:31:20.812800","MEAN_MOTION":15.27300571,"ECCENTRICITY":0.00108989,"INCLINATION":97.4288,"RA_OF_ASC_NODE":139.5608,"ARG_OF_PERICENTER":322.6893,"MEAN_ANOMALY":37.3588,"EPHEMERIS_TYPE":0,"CLASSIFICATION_TYPE":"U","NORAD_CAT_ID":61869,"ELEMENT_SET_NO":999,"REV_AT_EPOCH":7380,"BSTAR":0.00061472876,"MEAN_MOTION_DOT":0.00016411,"MEAN_MOTION_DDOT":0},{"OBJECT_NAME":"STARLINK-35111","OBJECT_ID":"2025-195F","EPOCH":"2026-03-09T22:12:57.193344","MEAN_MOTION":15.30223245,"ECCENTRICITY":7.331e-5,"INCLINATION":53.1584,"RA_OF_ASC_NODE":256.8121,"ARG_OF_PERICENTER":85.083,"MEAN_ANOMALY":275.0254,"EPHEMERIS_TYPE":0,"CLASSIFICATION_TYPE":"U","NORAD_CAT_ID":65463,"ELEMENT_SET_NO":999,"REV_AT_EPOCH":3003,"BSTAR":0.0009742998,"MEAN_MOTION_DOT":0.00028629,"MEAN_MOTION_DDOT":0}]
